{
  "norad_id": 59476,
  "name": "STARLINK-31515",
  "history": [
    {
      "epoch": "2026-03-28T14:10:17.085792",
      "apogee_km": 483.98504003814924,
      "perigee_km": 482.0858675029449,
      "latitude_deg": 42.40161503727898,
      "longitude_deg": -175.714349119924,
      "semi_major_axis_km": 6861.172453770547,
      "eccentricity": 0.0001384,
      "inclination_deg": 43.0002,
      "raan_deg": 287.7454,
      "arg_perigee_deg": 269.2445,
      "mean_anomaly_deg": 90.8248,
      "mean_motion_rev_day": 15.27584556
    }
  ]
}